[{"OBJECT_NAME":"GSAT0215 (GALILEO 19)","OBJECT_ID":"2017-079A","EPOCH":"2024-12-28T11:11:14.065728","MEAN_MOTION":1.70474028,"ECCENTRICITY":0.0001224,"INCLINATION":55.2578,"RA_OF_ASC_NODE":236.2503,"ARG_OF_PERICENTER":349.604,"MEAN_ANOMALY":10.497,"EPHEMERIS_TYPE":0,"CLASSIFICATION_TYPE":"U","NORAD_CAT_ID":43055,"ELEMENT_SET_NO":999,"REV_AT_EPOCH":4385,"BSTAR":0,"MEAN_MOTION_DOT":7.0e-7,"MEAN_MOTION_DDOT":0},{"OBJECT_NAME":"GSAT0216 (GALILEO 20)","OBJECT_ID":"2017-079B","EPOCH":"2024-12-28T04:06:24.057792","MEAN_MOTION":1.70474122,"ECCENTRICITY":0.0002233,"INCLINATION":55.258,"RA_OF_ASC_NODE":236.2584,"ARG_OF_PERICENTER":326.9175,"MEAN_ANOMALY":33.1708,"EPHEMERIS_TYPE":0,"CLASSIFICATION_TYPE":"U","NORAD_CAT_ID":43056,"ELEMENT_SET_NO":999,"REV_AT_EPOCH":4386,"BSTAR":0,"MEAN_MOTION_DOT":6.8e-7,"MEAN_MOTION_DDOT":0},{"OBJECT_NAME":"GSAT0217 (GALILEO 21)","OBJECT_ID":"2017-079C","EPOCH":"2024-12-28T09:23:59.331552","MEAN_MOTION":1.7047397,"ECCENTRICITY":0.000268,"INCLINATION":55.2563,"RA_OF_ASC_NODE":236.2507,"ARG_OF_PERICENTER":347.465,"MEAN_ANOMALY":12.6316,"EPHEMERIS_TYPE":0,"CLASSIFICATION_TYPE":"U","NORAD_CAT_ID":43057,"ELEMENT_SET_NO":999,"REV_AT_EPOCH":4385,"BSTAR":0,"MEAN_MOTION_DOT":6.9e-7,"MEAN_MOTION_DDOT":0},{"OBJECT_NAME":"GSAT0218 (GALILEO 22)","OBJECT_ID":"2017-079D","EPOCH":"2024-12-29T04:45:31.556160","MEAN_MOTION":1.70474142,"ECCENTRICITY":0.0002666,"INCLINATION":55.2561,"RA_OF_ASC_NODE":236.226,"ARG_OF_PERICENTER":307.4509,"MEAN_ANOMALY":52.6312,"EPHEMERIS_TYPE":0,"CLASSIFICATION_TYPE":"U","NORAD_CAT_ID":43058,"ELEMENT_SET_NO":999,"REV_AT_EPOCH":4389,"BSTAR":0,"MEAN_MOTION_DOT":7.4e-7,"MEAN_MOTION_DDOT":0},{"OBJECT_NAME":"GSAT0221 (GALILEO 25)","OBJECT_ID":"2018-060A","EPOCH":"2024-12-30T06:32:18.811680","MEAN_MOTION":1.70475715,"ECCENTRICITY":0.0006483,"INCLINATION":57.2938,"RA_OF_ASC_NODE":356.1853,"ARG_OF_PERICENTER":284.7632,"MEAN_ANOMALY":75.1805,"EPHEMERIS_TYPE":0,"CLASSIFICATION_TYPE":"U","NORAD_CAT_ID":43564,"ELEMENT_SET_NO":999,"REV_AT_EPOCH":4006,"BSTAR":0,"MEAN_MOTION_DOT":-6.1e-7,"MEAN_MOTION_DDOT":0},{"OBJECT_NAME":"GSAT0222 (GALILEO 26)","OBJECT_ID":"2018-060B","EPOCH":"2024-12-28T17:33:20.349792","MEAN_MOTION":1.70475506,"ECCENTRICITY":0.0005686,"INCLINATION":57.2982,"RA_OF_ASC_NODE":356.229,"ARG_OF_PERICENTER":263.3141,"MEAN_ANOMALY":96.6405,"EPHEMERIS_TYPE":0,"CLASSIFICATION_TYPE":"U","NORAD_CAT_ID":43565,"ELEMENT_SET_NO":999,"REV_AT_EPOCH":4008,"BSTAR":0,"MEAN_MOTION_DOT":-6.4e-7,"MEAN_MOTION_DDOT":0},{"OBJECT_NAME":"GSAT0219 (GALILEO 23)","OBJECT_ID":"2018-060C","EPOCH":"2024-12-28T22:52:26.417856","MEAN_MOTION":1.7047579,"ECCENTRICITY":0.0005649,"INCLINATION":57.2969,"RA_OF_ASC_NODE":356.2249,"ARG_OF_PERICENTER":288.9907,"MEAN_ANOMALY":70.9669,"EPHEMERIS_TYPE":0,"CLASSIFICATION_TYPE":"U","NORAD_CAT_ID":43566,"ELEMENT_SET_NO":999,"REV_AT_EPOCH":4006,"BSTAR":0,"MEAN_MOTION_DOT":-6.3e-7,"MEAN_MOTION_DDOT":0},{"OBJECT_NAME":"GSAT0220 (GALILEO 24)","OBJECT_ID":"2018-060D","EPOCH":"2024-12-30T08:19:41.430720","MEAN_MOTION":1.70475698,"ECCENTRICITY":0.0005798,"INCLINATION":57.2965,"RA_OF_ASC_NODE":356.1879,"ARG_OF_PERICENTER":285.5795,"MEAN_ANOMALY":74.3718,"EPHEMERIS_TYPE":0,"CLASSIFICATION_TYPE":"U","NORAD_CAT_ID":43567,"ELEMENT_SET_NO":999,"REV_AT_EPOCH":4007,"BSTAR":0,"MEAN_MOTION_DOT":-6.1e-7,"MEAN_MOTION_DDOT":0},{"OBJECT_NAME":"GSAT0223 (GALILEO 27)","OBJECT_ID":"2021-116A","EPOCH":"2024-12-29T21:51:24.818688","MEAN_MOTION":1.70475854,"ECCENTRICITY":0.0003892,"INCLINATION":57.2866,"RA_OF_ASC_NODE":356.0927,"ARG_OF_PERICENTER":252.9914,"MEAN_ANOMALY":289.7502,"EPHEMERIS_TYPE":0,"CLASSIFICATION_TYPE":"U","NORAD_CAT_ID":49809,"ELEMENT_SET_NO":999,"REV_AT_EPOCH":1907,"BSTAR":0,"MEAN_MOTION_DOT":-6.2e-7,"MEAN_MOTION_DDOT":0},{"OBJECT_NAME":"GSAT0224 (GALILEO 28)","OBJECT_ID":"2021-116B","EPOCH":"2024-12-30T20:46:10.850304","MEAN_MOTION":1.70475816,"ECCENTRICITY":0.0003284,"INCLINATION":57.2874,"RA_OF_ASC_NODE":356.0656,"ARG_OF_PERICENTER":258.7506,"MEAN_ANOMALY":262.4436,"EPHEMERIS_TYPE":0,"CLASSIFICATION_TYPE":"U","NORAD_CAT_ID":49810,"ELEMENT_SET_NO":999,"REV_AT_EPOCH":1911,"BSTAR":0,"MEAN_MOTION_DOT":-6.1e-7,"MEAN_MOTION_DDOT":0},{"OBJECT_NAME":"GSAT0225 (GALILEO 29)","OBJECT_ID":"2024-079A","EPOCH":"2024-12-30T00:47:14.964576","MEAN_MOTION":1.7047466,"ECCENTRICITY":0.0003507,"INCLINATION":54.8032,"RA_OF_ASC_NODE":116.0279,"ARG_OF_PERICENTER":222.8699,"MEAN_ANOMALY":138.5293,"EPHEMERIS_TYPE":0,"CLASSIFICATION_TYPE":"U","NORAD_CAT_ID":59598,"ELEMENT_SET_NO":999,"REV_AT_EPOCH":421,"BSTAR":0,"MEAN_MOTION_DOT":6.0e-8,"MEAN_MOTION_DDOT":0},{"OBJECT_NAME":"GSAT0227 (GALILEO 30)","OBJECT_ID":"2024-079C","EPOCH":"2024-12-26T16:39:47.338560","MEAN_MOTION":1.70474939,"ECCENTRICITY":0.0002847,"INCLINATION":54.7966,"RA_OF_ASC_NODE":116.1208,"ARG_OF_PERICENTER":127.5562,"MEAN_ANOMALY":232.4339,"EPHEMERIS_TYPE":0,"CLASSIFICATION_TYPE":"U","NORAD_CAT_ID":59600,"ELEMENT_SET_NO":999,"REV_AT_EPOCH":420,"BSTAR":0,"MEAN_MOTION_DOT":9.0e-8,"MEAN_MOTION_DDOT":0},{"OBJECT_NAME":"GSAT0232 (GALILEO 32)","OBJECT_ID":"2024-167A","EPOCH":"2024-12-29T00:31:23.042208","MEAN_MOTION":1.70473622,"ECCENTRICITY":0.0001542,"INCLINATION":55.3667,"RA_OF_ASC_NODE":235.9992,"ARG_OF_PERICENTER":196.6696,"MEAN_ANOMALY":347.3395,"EPHEMERIS_TYPE":0,"CLASSIFICATION_TYPE":"U","NORAD_CAT_ID":61182,"ELEMENT_SET_NO":999,"REV_AT_EPOCH":175,"BSTAR":0,"MEAN_MOTION_DOT":7.4e-7,"MEAN_MOTION_DDOT":0},{"OBJECT_NAME":"GSAT0226 (GALILEO 31)","OBJECT_ID":"2024-167B","EPOCH":"2024-12-30T14:00:35.318304","MEAN_MOTION":1.70473629,"ECCENTRICITY":0.0001441,"INCLINATION":55.3648,"RA_OF_ASC_NODE":235.9619,"ARG_OF_PERICENTER":96.2834,"MEAN_ANOMALY":78.8587,"EPHEMERIS_TYPE":0,"CLASSIFICATION_TYPE":"U","NORAD_CAT_ID":61183,"ELEMENT_SET_NO":999,"REV_AT_EPOCH":175,"BSTAR":0,"MEAN_MOTION_DOT":8.0e-7,"MEAN_MOTION_DDOT":0}]
