GSAT0215 (GALILEO 19)   
1 43055U 17079A   24363.46613502  .00000070  00000+0  00000+0 0  9991
2 43055  55.2578 236.2503 0001224 349.6040  10.4970  1.70474028 43851
GSAT0216 (GALILEO 20)   
1 43056U 17079B   24363.17111178  .00000068  00000+0  00000+0 0  9999
2 43056  55.2580 236.2584 0002233 326.9175  33.1708  1.70474122 43869
GSAT0217 (GALILEO 21)   
1 43057U 17079C   24363.39165893  .00000069  00000+0  00000+0 0  9998
2 43057  55.2563 236.2507 0002680 347.4650  12.6316  1.70473970 43854
GSAT0218 (GALILEO 22)   
1 43058U 17079D   24364.19828190  .00000074  00000+0  00000+0 0  9990
2 43058  55.2561 236.2260 0002666 307.4509  52.6312  1.70474142 43898
GSAT0221 (GALILEO 25)   
1 43564U 18060A   24365.27243995 -.00000061  00000+0  00000+0 0  9994
2 43564  57.2938 356.1853 0006483 284.7632  75.1805  1.70475715 40065
GSAT0222 (GALILEO 26)   
1 43565U 18060B   24363.73148553 -.00000064  00000+0  00000+0 0  9991
2 43565  57.2982 356.2290 0005686 263.3141  96.6405  1.70475506 40087
GSAT0219 (GALILEO 23)   
1 43566U 18060C   24363.95308354 -.00000063  00000+0  00000+0 0  9992
2 43566  57.2969 356.2249 0005649 288.9907  70.9669  1.70475790 40069
GSAT0220 (GALILEO 24)   
1 43567U 18060D   24365.34700730 -.00000061  00000+0  00000+0 0  9990
2 43567  57.2965 356.1879 0005798 285.5795  74.3718  1.70475698 40078
GSAT0223 (GALILEO 27)   
1 49809U 21116A   24364.91070392 -.00000062  00000+0  00000+0 0  9998
2 49809  57.2866 356.0927 0003892 252.9914 289.7502  1.70475854 19073
GSAT0224 (GALILEO 28)   
1 49810U 21116B   24365.86540336 -.00000061  00000+0  00000+0 0  9994
2 49810  57.2874 356.0656 0003284 258.7506 262.4436  1.70475816 19116
GSAT0225 (GALILEO 29)   
1 59598U 24079A   24365.03281209  .00000006  00000+0  00000+0 0  9997
2 59598  54.8032 116.0279 0003507 222.8699 138.5293  1.70474660  4212
GSAT0227 (GALILEO 30)   
1 59600U 24079C   24361.69429790  .00000009  00000+0  00000+0 0  9991
2 59600  54.7966 116.1208 0002847 127.5562 232.4339  1.70474939  4203
GSAT0232 (GALILEO 32)   
1 61182U 24167A   24364.02179447  .00000074  00000+0  00000+0 0  9990
2 61182  55.3667 235.9992 0001542 196.6696 347.3395  1.70473622  1755
GSAT0226 (GALILEO 31)   
1 61183U 24167B   24365.58374211  .00000080  00000+0  00000+0 0  9996
2 61183  55.3648 235.9619 0001441  96.2834  78.8587  1.70473629  1754
